STARLINK-3288           
1 50160U 21125E   22321.08545259  .00001025  00000+0  82498-4 0  9993
2 50160  53.2158 284.7610 0002853  25.9629 334.1506 15.08838413 53514
STARLINK-3304           
1 50161U 21125F   22321.28785448  .00002063  00000+0  14771-3 0  9993
2 50161  53.2181 283.8461 0003015  25.8564 334.2579 15.08833304 53541
STARLINK-3303           
1 50162U 21125G   22320.81563821 -.00002498  00000+0 -36393-4 0  9990
2 50162  53.2158 148.4954 0001227  64.3219 295.7918 15.49650034 55921
STARLINK-3306           
1 50163U 21125H   22321.00728173  .00000577  00000+0  54354-4 0  9997
2 50163  53.2184 265.1043 0002609  31.5531 328.5617 15.08843760 53783
STARLINK-3298           
1 50165U 21125K   22321.33937120 -.00003895  00000+0 -22669-3 0  9990
2 50165  53.2171 283.6291 0002376  34.2571 325.8574 15.08846361 50954
STARLINK-3305           
1 50166U 21125L   22321.36237919  .00000861  00000+0  72223-4 0  9993
2 50166  53.2181 273.5128 0002827  30.2310 329.8845 15.08840495 51094
STARLINK-3271           
1 50167U 21125M   22321.06704246 -.00010523  00000+0 -64311-3 0  9999
2 50167  53.2149 284.8484 0002133  25.4466 334.6631 15.08889809 53515
STARLINK-3296           
1 50168U 21125N   22321.15997329 -.00000027  00000+0  16450-4 0  9995
2 50168  53.2179 274.4225 0002845  28.2849 331.8297 15.08836846 51050
STARLINK-3301           
1 50169U 21125P   22321.13053139  .00003343  00000+0  22805-3 0  9999
2 50169  53.2150 274.5572 0002890  33.1229 326.9943 15.08845869 51062
STARLINK-3245           
1 50170U 21125Q   22321.15261945 -.00000845  00000+0 -34978-4 0  9990
2 50170  53.2191 274.4617 0002879  26.0490 334.0646 15.08830721 53665
STARLINK-3286           
1 50171U 21125R   22321.03484952  .00000858  00000+0  72016-4 0  9990
2 50171  53.2175 274.9921 0002477  29.8920 330.2213 15.08833873 53641
STARLINK-3287           
1 50172U 21125S   22320.61532884  .00001954  00000+0  14087-3 0  9993
2 50172  53.2164 276.8779 0002353  37.2111 322.9044 15.08842029 54105
STARLINK-3289           
1 50173U 21125T   22320.57672689  .00003663  00000+0  24806-3 0  9996
2 50173  53.2167 267.0542 0001776  56.1607 303.9554 15.08846774 51122
STARLINK-3292           
1 50174U 21125U   22321.13421668 -.00000822  00000+0 -33503-4 0  9990
2 50174  53.2162 274.5502 0002570  32.1192 327.9957 15.08840627 53668
STARLINK-3291           
1 50175U 21125V   22321.28876834  .00000890  00000+0  74057-4 0  9998
2 50175  53.2186 273.8495 0002523  38.0585 322.0585 15.08840487 53686
STARLINK-3293           
1 50176U 21125W   22321.13788901  .00001951  00000+0  14067-3 0  9993
2 50176  53.2156 274.5336 0003218  24.5952 335.5193 15.08848084 51061
STARLINK-3282           
1 50177U 21125X   22321.28140706  .00000139  00000+0  26851-4 0  9997
2 50177  53.2179 273.8887 0002755  33.7102 326.4065 15.08851813 53685
STARLINK-3284           
1 50178U 21125Y   22321.30717005 -.00000017  00000+0  17056-4 0  9996
2 50178  53.2178 273.7530 0002468  34.2159 325.8992 15.08838650 53684
STARLINK-3283           
1 50179U 21125Z   22320.61165240  .00002624  00000+0  18289-3 0  9991
2 50179  53.2173 276.8938 0002723  26.7711 333.3421 15.08839656 54072
STARLINK-3265           
1 50180U 21125AA  22321.25933111  .00003224  00000+0  22055-3 0  9997
2 50180  53.2167 273.9842 0002338  32.4114 327.7021 15.08840765 51086
STARLINK-3285           
1 50181U 21125AB  22321.05326406 -.00001382  00000+0 -68691-4 0  9991
2 50181  53.2175 274.9116 0003000  28.4777 331.6378 15.08835646 53654
STARLINK-3277           
1 50182U 21125AC  22321.04588999  .00001724  00000+0  12639-3 0  9996
2 50182  53.2159 274.9464 0003211  28.0864 332.0301 15.08845217 53656
STARLINK-3281           
1 50183U 21125AD  22321.31453268 -.00000804  00000+0 -32388-4 0  9991
2 50183  53.2171 273.7430 0002354  30.0491 330.0636 15.08832928 51097
STARLINK-3279           
1 50185U 21125AF  22320.59325743 -.00000550  00000+0 -16388-4 0  9998
2 50185  53.2170 276.9738 0003476  19.4790 340.6334 15.08828582 53593
STARLINK-3274           
1 50186U 21125AG  22321.40193546 -.00000285  00000+0  21071-6 0  9995
2 50186  53.2179 283.3402 0002794  32.6402 327.4762 15.08832610 53564
STARLINK-3272           
1 50187U 21125AH  22321.23080320  .00003819  00000+0  25785-3 0  9990
2 50187  53.2161 264.0991 0001956  47.3517 312.7640 15.08852529 51206
STARLINK-3275           
1 50188U 21125AJ  22321.23414506 -.00014018  00000+0 -86400-3 0  9994
2 50188  53.2158 264.0751 0001947  40.9847 319.1291 15.08854744 51206
STARLINK-3276           
1 50189U 21125AK  22321.03855564 -.00003319  00000+0 -19064-3 0  9990
2 50189  53.2194 274.9798 0002701  28.5156 331.5984 15.08807732 53655
STARLINK-3268           
1 50190U 21125AL  22321.15352795  .00000926  00000+0  76320-4 0  9991
2 50190  53.2173 264.4591 0002756  24.6640 335.4483 15.08842043 53802
STARLINK-3273           
1 50191U 21125AM  22321.29521032  .00005030  00000+0  33380-3 0  9998
2 50191  53.2166 283.8103 0002826  26.7880 333.3258 15.08849287 50942
STARLINK-3259           
1 50192U 21125AN  22321.34856687 -.00000426  00000+0 -86376-5 0  9993
2 50192  53.2175 263.5812 0002839  23.2085 336.9035 15.08842790 51224
STARLINK-3261           
1 50193U 21125AP  22321.22712876  .00002593  00000+0  18097-3 0  9990
2 50193  53.2180 264.1273 0002862  29.6877 330.4277 15.08847270 53816
STARLINK-3269           
1 50194U 21125AQ  22321.21241525 -.00000121  00000+0  10531-4 0  9990
2 50194  53.2189 264.1923 0002525  33.3166 326.7985 15.08839468 53811
STARLINK-3266           
1 50195U 21125AR  22321.02473608 -.00001319  00000+0 -64771-4 0  9995
2 50195  53.2165 265.0373 0002443  34.5470 325.5680 15.08834402 53783
STARLINK-3263           
1 50196U 21125AS  22321.13880822  .00003195  00000+0  21873-3 0  9995
2 50196  53.2142 264.5273 0003002  29.7389 330.3773 15.08849471 53801
STARLINK-3267           
1 50197U 21125AT  22321.27498153  .00000421  00000+0  44546-4 0  9995
2 50197  53.2177 263.9176 0002419  33.6324 326.4822 15.08831457 53827
STARLINK-3264           
1 50198U 21125AU  22321.12777324 -.00000188  00000+0  63110-5 0  9990
2 50198  53.2174 264.5718 0002217  48.1401 311.9780 15.08841040 53806
STARLINK-3270           
1 50199U 21125AV  22321.24185861 -.00001540  00000+0 -78677-4 0  9990
2 50199  53.2179 264.0533 0002628  28.9232 331.1905 15.08830864 53812
STARLINK-3235           
1 50200U 21125AW  22321.13513393  .00000351  00000+0  40184-4 0  9995
2 50200  53.2166 264.5422 0003151  22.7182 337.3949 15.08838406 53806
STARLINK-3255           
1 50201U 21125AX  22321.12408489  .00000713  00000+0  62935-4 0  9994
2 50201  53.2175 264.5954 0002606  27.0214 333.0913 15.08842953 53801
STARLINK-3256           
1 50202U 21125AY  22320.57577351  .00001872  00000+0  13571-3 0  9996
2 50202  53.2176 267.0358 0002811  29.9507 330.1645 15.08838856 53710
STARLINK-3257           
1 50203U 21125AZ  22321.13144987  .00001653  00000+0  12198-3 0  9996
2 50203  53.2165 264.5636 0002719  26.8316 333.2817 15.08840297 51200
STARLINK-3254           
1 50204U 21125BA  22320.38441670  .00000584  00000+0  54831-4 0  9995
2 50204  53.2158 267.9166 0002533  32.3704 327.7443 15.08833861 51094
STARLINK-3260           
1 50205U 21125BB  22321.12044664  .00003398  00000+0  23143-3 0  9998
2 50205  53.2179 234.6028 0002677  32.9407 327.1751 15.08848992 54237
STARLINK-3258           
1 50206U 21125BC  22321.24922156  .00008950  00000+0  58018-3 0  9991
2 50206  53.2180 264.0340 0003197  27.6738 332.4424 15.08808647 52226
STARLINK-3262           
1 50207U 21125BD  22320.59049554  .00001977  00000+0  14236-3 0  9997
2 50207  53.2173 266.9901 0003223  30.4419 329.6760 15.08830074 52197
STARLINK-3321           
1 50803U 22001A   22321.10477594  .00000313  00000+0  37813-4 0  9990
2 50803  53.2174 194.6722 0002504  28.3307 331.7821 15.08825642 49228
STARLINK-3323           
1 50804U 22001B   22321.07257828  .00002570  00000+0  17949-3 0  9997
2 50804  53.2171 184.8281 0002163  46.4894 313.6277 15.08846259 49333
STARLINK-3333           
1 50805U 22001C   22321.06890914  .00001610  00000+0  11923-3 0  9996
2 50805  53.2175 184.8411 0002081  45.7708 314.3455 15.08833438 49351
STARLINK-3335           
1 50806U 22001D   22321.06521918 -.00000119  00000+0  10653-4 0  9996
2 50806  53.2160 184.8348 0002314  43.6104 316.5071 15.08835608 49350
STARLINK-3353           
1 50807U 22001E   22320.78552934  .00003203  00000+0  21922-3 0  9993
2 50807  53.2145 186.1197 0002180  41.5537 318.5621 15.08845389 48044
STARLINK-3355           
1 50808U 22001F   22320.79289261 -.00001429  00000+0 -71661-4 0  9991
2 50808  53.2162 186.0723 0002245  41.5171 318.5991 15.08836288 48042
STARLINK-3232           
1 50809U 22001G   22321.06153227  .00001511  00000+0  11302-3 0  9990
2 50809  53.2167 184.8698 0002132  38.2644 321.8499 15.08841818 49369
STARLINK-3348           
1 50810U 22001H   22321.31913843 -.00000393  00000+0 -65700-5 0  9990
2 50810  53.2145 183.7221 0002311  36.7389 323.3761 15.08831338 49371
STARLINK-3347           
1 50811U 22001J   22321.04681811  .00008053  00000+0  52352-3 0  9994
2 50811  53.2144 184.9403 0002530  47.3460 312.7745 15.08836682 49367
STARLINK-3338           
1 50812U 22001K   22321.34216714  .00002727  00000+0  18932-3 0  9992
2 50812  53.2157 183.5983 0002401  39.5984 320.5183 15.08852116 49375
STARLINK-3349           
1 50813U 22001L   22321.04409985 -.00000156  00000+0  83153-5 0  9998
2 50813  53.2155 184.9540 0001927  45.3565 314.7584 15.08835072 49338
STARLINK-3324           
1 50814U 22001M   22321.02379555  .00002362  00000+0  16638-3 0  9998
2 50814  53.2168 195.0433 0002304  34.2023 325.9118 15.08856681 49216
STARLINK-3234           
1 50815U 22001N   22320.96861575  .00002469  00000+0  17313-3 0  9998
2 50815  53.2172 195.2918 0002561  39.7436 320.3743 15.08851273 49209
STARLINK-3342           
1 50816U 22001P   22321.07165482 -.00000615  00000+0 -20540-4 0  9996
2 50816  53.2146 194.8287 0002618  33.0654 327.0502 15.08840053 49220
